ONEWEB-0585             
1 54652U 22166L   24014.67459286  .00000020  00000+0  16782-4 0  9996
2 54652  87.9221  60.0512 0002033 104.4305 255.7055 13.21825635 54679
ONEWEB-0587             
1 54654U 22166N   24014.62099548  .00000064  00000+0  12270-3 0  9999
2 54654  87.9215  60.0445 0002194  95.2500 264.8884 13.21824467 54821
ONEWEB-0589             
1 54655U 22166P   24014.68405010  .00000037  00000+0  57992-4 0  9992
2 54655  87.9224  60.0564 0000850 109.9118 250.2107 13.21827834 54692
ONEWEB-0590             
1 54656U 22166Q   24014.63202948  .00000016  00000+0  83808-5 0  9996
2 54656  87.9222  60.0689 0001906  90.5777 269.5575 13.21830035 54675
ONEWEB-0591             
1 54657U 22166R   24014.64462486 -.00000056  00000+0 -16791-3 0  9994
2 54657  87.9221  60.0693 0001635  97.7167 262.4152 13.21824683 54700
ONEWEB-0592             
1 54658U 22166S   24014.64778733  .00000046  00000+0  79018-4 0  9999
2 54658  87.9213  60.0397 0001501  95.9331 264.1974 13.21827369 54589
